[{"OBJECT_NAME":"TRACERS 1","OBJECT_ID":"2025-154B","EPOCH":"2026-03-09T22:30:44.529696","MEAN_MOTION":14.93154596,"ECCENTRICITY":0.00045304,"INCLINATION":97.6795,"RA_OF_ASC_NODE":134.9733,"ARG_OF_PERICENTER":213.6392,"MEAN_ANOMALY":146.4541,"EPHEMERIS_TYPE":0,"CLASSIFICATION_TYPE":"U","NORAD_CAT_ID":64870,"ELEMENT_SET_NO":999,"REV_AT_EPOCH":3418,"BSTAR":0.00024898886,"MEAN_MOTION_DOT":2.543e-5,"MEAN_MOTION_DDOT":0},{"OBJECT_NAME":"COSMOS 2251 DEB","OBJECT_ID":"1993-036BFE","EPOCH":"2026-03-07T11:17:48.105024","MEAN_MOTION":15.02528382,"ECCENTRICITY":0.00920663,"INCLINATION":74.0305,"RA_OF_ASC_NODE":348.6467,"ARG_OF_PERICENTER":45.7,"MEAN_ANOMALY":315.169,"EPHEMERIS_TYPE":0,"CLASSIFICATION_TYPE":"U","NORAD_CAT_ID":37084,"ELEMENT_SET_NO":999,"REV_AT_EPOCH":67539,"BSTAR":0.00092223433,"MEAN_MOTION_DOT":0.00013425,"MEAN_MOTION_DDOT":0}]
